WORLDVIEW-1 (WV-1)      
1 32060U 07041A   26174.92232388  .00005044  00000+0  20911-3 0  9998
2 32060  97.3877 294.5695 0001608 357.4855   2.6374 15.24329702 43909
WORLDVIEW-2 (WV-2)      
1 35946U 09055A   26174.91364257  .00000078  00000+0  40127-4 0  9995
2 35946  98.4735 248.2705 0004133 186.4214 173.6921 14.37901086876616
YAOGAN-10               
1 36834U 10038A   26175.01453808  .00000963  00000+0  11825-3 0  9993
2 36834  97.8978 198.3640 0001635  86.9680 303.3210 14.85364484858221
VNREDSAT 1              
1 39160U 13021B   26174.91970997  .00000287  00000+0  62292-4 0  9998
2 39160  97.9077 228.0782 0001742  87.3675 272.7728 14.64862019701272
WORLDVIEW-3 (WV-3)      
1 40115U 14048A   26174.90537678  .00000638  00000+0  80943-4 0  9997
2 40115  97.8564 249.6455 0000437  18.4230 341.7000 14.85031032642902
YAOGAN-21               
1 40143U 14053A   26174.98036436  .00006659  00000+0  25774-3 0  9997
2 40143  97.1479 214.9242 0009757  74.4712 285.7604 15.26457743655998
UMBRA-09                
1 60541U 24149CB  26174.52690062  .00011937  00000+0  58677-3 0  9992
2 60541  97.6963 261.8412 0001102 242.7564 117.3557 15.18194812101681
UMBRA-10                
1 60547U 24149CH  26174.52645383  .00012876  00000+0  63249-3 0  9998
2 60547  97.6974 261.8691 0000281 138.1438 221.9817 15.18198150101694
UMBRA-11                
1 66748U 25276CL  26174.94147883  .00020592  00000+0  77934-3 0  9997
2 66748  97.4199 249.5304 0000690 285.1914  74.9248 15.26962686 31520
UMBRA-12                
1 67371U 26004J   26174.96005952  .00003837  00000+0  40971-3 0  9996
2 67371  97.8015 173.6358 0007945 106.4849 253.7242 14.89365168 24312
