{
 "generated_at": "2026-06-24T08:22:35Z",
 "sources": [
  {
   "name": "CelesTrak",
   "url": "https://celestrak.org/NORAD/elements/",
   "license": "frei verfügbar; Attribution. Ursprünglich USSPACECOM/Space-Track."
  },
  {
   "name": "GCAT (J. McDowell, planet4589.org)",
   "url": "https://planet4589.org/space/gcat/",
   "license": "CC-BY 4.0"
  }
 ],
 "satellites": [
  {
   "norad": 60541,
   "name": "UMBRA-09",
   "intl": "2024-149CB",
   "group": "sar",
   "gcat": {
    "class": "B",
    "category": "IMG-R",
    "owner": "UMBRA",
    "state": "US"
   },
   "omm": {
    "OBJECT_NAME": "UMBRA-09",
    "OBJECT_ID": "2024-149CB",
    "EPOCH": "2026-06-23T12:38:44.213568",
    "MEAN_MOTION": 15.18194812,
    "ECCENTRICITY": 0.00011025,
    "INCLINATION": 97.6963,
    "RA_OF_ASC_NODE": 261.8412,
    "ARG_OF_PERICENTER": 242.7564,
    "MEAN_ANOMALY": 117.3557,
    "EPHEMERIS_TYPE": 0,
    "CLASSIFICATION_TYPE": "U",
    "NORAD_CAT_ID": 60541,
    "ELEMENT_SET_NO": 999,
    "REV_AT_EPOCH": 10168,
    "BSTAR": 0.00058677451,
    "MEAN_MOTION_DOT": 0.00011937,
    "MEAN_MOTION_DDOT": 0
   }
  },
  {
   "norad": 60547,
   "name": "UMBRA-10",
   "intl": "2024-149CH",
   "group": "sar",
   "gcat": {
    "class": "B",
    "category": "IMG-R",
    "owner": "UMBRA",
    "state": "US"
   },
   "omm": {
    "OBJECT_NAME": "UMBRA-10",
    "OBJECT_ID": "2024-149CH",
    "EPOCH": "2026-06-23T12:38:05.610912",
    "MEAN_MOTION": 15.1819815,
    "ECCENTRICITY": 0.0000281,
    "INCLINATION": 97.6974,
    "RA_OF_ASC_NODE": 261.8691,
    "ARG_OF_PERICENTER": 138.1438,
    "MEAN_ANOMALY": 221.9817,
    "EPHEMERIS_TYPE": 0,
    "CLASSIFICATION_TYPE": "U",
    "NORAD_CAT_ID": 60547,
    "ELEMENT_SET_NO": 999,
    "REV_AT_EPOCH": 10169,
    "BSTAR": 0.0006324854,
    "MEAN_MOTION_DOT": 0.00012876,
    "MEAN_MOTION_DDOT": 0
   }
  },
  {
   "norad": 66748,
   "name": "UMBRA-11",
   "intl": "2025-276CL",
   "group": "sar",
   "gcat": {
    "class": "B",
    "category": "IMG-R",
    "owner": "UMBRA",
    "state": "US"
   },
   "omm": {
    "OBJECT_NAME": "UMBRA-11",
    "OBJECT_ID": "2025-276CL",
    "EPOCH": "2026-06-23T22:35:43.770912",
    "MEAN_MOTION": 15.26962686,
    "ECCENTRICITY": 0.00006906,
    "INCLINATION": 97.4199,
    "RA_OF_ASC_NODE": 249.5304,
    "ARG_OF_PERICENTER": 285.1914,
    "MEAN_ANOMALY": 74.9248,
    "EPHEMERIS_TYPE": 0,
    "CLASSIFICATION_TYPE": "U",
    "NORAD_CAT_ID": 66748,
    "ELEMENT_SET_NO": 999,
    "REV_AT_EPOCH": 3152,
    "BSTAR": 0.00077934273,
    "MEAN_MOTION_DOT": 0.00020592,
    "MEAN_MOTION_DDOT": 0
   }
  },
  {
   "norad": 67371,
   "name": "UMBRA-12",
   "intl": "2026-004J",
   "group": "sar",
   "gcat": {
    "class": "B",
    "category": "IMG-R",
    "owner": "UMBRA",
    "state": "US"
   },
   "omm": {
    "OBJECT_NAME": "UMBRA-12",
    "OBJECT_ID": "2026-004J",
    "EPOCH": "2026-06-23T23:02:29.142528",
    "MEAN_MOTION": 14.89365168,
    "ECCENTRICITY": 0.00079457,
    "INCLINATION": 97.8015,
    "RA_OF_ASC_NODE": 173.6358,
    "ARG_OF_PERICENTER": 106.4849,
    "MEAN_ANOMALY": 253.7242,
    "EPHEMERIS_TYPE": 0,
    "CLASSIFICATION_TYPE": "U",
    "NORAD_CAT_ID": 67371,
    "ELEMENT_SET_NO": 999,
    "REV_AT_EPOCH": 2431,
    "BSTAR": 0.0004097149,
    "MEAN_MOTION_DOT": 0.00003837,
    "MEAN_MOTION_DDOT": 0
   }
  },
  {
   "norad": 39160,
   "name": "VNREDSAT 1",
   "intl": "2013-021B",
   "group": "resource",
   "gcat": {
    "class": "C",
    "category": "IMG",
    "owner": "VAST",
    "state": "VN"
   },
   "omm": {
    "OBJECT_NAME": "VNREDSAT 1",
    "OBJECT_ID": "2013-021B",
    "EPOCH": "2026-06-23T22:04:22.941408",
    "MEAN_MOTION": 14.64862019,
    "ECCENTRICITY": 0.00017424,
    "INCLINATION": 97.9077,
    "RA_OF_ASC_NODE": 228.0782,
    "ARG_OF_PERICENTER": 87.3675,
    "MEAN_ANOMALY": 272.7728,
    "EPHEMERIS_TYPE": 0,
    "CLASSIFICATION_TYPE": "U",
    "NORAD_CAT_ID": 39160,
    "ELEMENT_SET_NO": 999,
    "REV_AT_EPOCH": 70127,
    "BSTAR": 0.000062292013,
    "MEAN_MOTION_DOT": 0.00000287,
    "MEAN_MOTION_DDOT": 0
   }
  },
  {
   "norad": 32060,
   "name": "WORLDVIEW-1 (WV-1)",
   "intl": "2007-041A",
   "group": "resource",
   "gcat": {
    "class": "B",
    "category": "IMG",
    "owner": "DGLO",
    "state": "US"
   },
   "omm": {
    "OBJECT_NAME": "WORLDVIEW-1 (WV-1)",
    "OBJECT_ID": "2007-041A",
    "EPOCH": "2026-06-23T22:08:08.783232",
    "MEAN_MOTION": 15.24329702,
    "ECCENTRICITY": 0.00016088,
    "INCLINATION": 97.3877,
    "RA_OF_ASC_NODE": 294.5695,
    "ARG_OF_PERICENTER": 357.4855,
    "MEAN_ANOMALY": 2.6374,
    "EPHEMERIS_TYPE": 0,
    "CLASSIFICATION_TYPE": "U",
    "NORAD_CAT_ID": 32060,
    "ELEMENT_SET_NO": 999,
    "REV_AT_EPOCH": 4390,
    "BSTAR": 0.00020911028,
    "MEAN_MOTION_DOT": 0.00005044,
    "MEAN_MOTION_DDOT": 0
   }
  },
  {
   "norad": 35946,
   "name": "WORLDVIEW-2 (WV-2)",
   "intl": "2009-055A",
   "group": "resource",
   "gcat": {
    "class": "B",
    "category": "IMG",
    "owner": "DGLO",
    "state": "US"
   },
   "omm": {
    "OBJECT_NAME": "WORLDVIEW-2 (WV-2)",
    "OBJECT_ID": "2009-055A",
    "EPOCH": "2026-06-23T21:55:38.718048",
    "MEAN_MOTION": 14.37901086,
    "ECCENTRICITY": 0.00041336,
    "INCLINATION": 98.4735,
    "RA_OF_ASC_NODE": 248.2705,
    "ARG_OF_PERICENTER": 186.4214,
    "MEAN_ANOMALY": 173.6921,
    "EPHEMERIS_TYPE": 0,
    "CLASSIFICATION_TYPE": "U",
    "NORAD_CAT_ID": 35946,
    "ELEMENT_SET_NO": 999,
    "REV_AT_EPOCH": 87661,
    "BSTAR": 0.000040127145,
    "MEAN_MOTION_DOT": 7.8e-7,
    "MEAN_MOTION_DDOT": 0
   }
  },
  {
   "norad": 40115,
   "name": "WORLDVIEW-3 (WV-3)",
   "intl": "2014-048A",
   "group": "resource",
   "gcat": {
    "class": "B",
    "category": "IMG",
    "owner": "DGLO",
    "state": "US"
   },
   "omm": {
    "OBJECT_NAME": "WORLDVIEW-3 (WV-3)",
    "OBJECT_ID": "2014-048A",
    "EPOCH": "2026-06-23T21:43:44.553792",
    "MEAN_MOTION": 14.85031032,
    "ECCENTRICITY": 0.00004379,
    "INCLINATION": 97.8564,
    "RA_OF_ASC_NODE": 249.6455,
    "ARG_OF_PERICENTER": 18.423,
    "MEAN_ANOMALY": 341.7,
    "EPHEMERIS_TYPE": 0,
    "CLASSIFICATION_TYPE": "U",
    "NORAD_CAT_ID": 40115,
    "ELEMENT_SET_NO": 999,
    "REV_AT_EPOCH": 64290,
    "BSTAR": 0.000080942868,
    "MEAN_MOTION_DOT": 0.00000638,
    "MEAN_MOTION_DDOT": 0
   }
  },
  {
   "norad": 36834,
   "name": "YAOGAN-10",
   "intl": "2010-038A",
   "group": "resource",
   "gcat": {
    "class": null,
    "category": null,
    "owner": null,
    "state": null
   },
   "omm": {
    "OBJECT_NAME": "YAOGAN-10",
    "OBJECT_ID": "2010-038A",
    "EPOCH": "2026-06-24T00:20:56.090112",
    "MEAN_MOTION": 14.85364484,
    "ECCENTRICITY": 0.00016359,
    "INCLINATION": 97.8978,
    "RA_OF_ASC_NODE": 198.364,
    "ARG_OF_PERICENTER": 86.968,
    "MEAN_ANOMALY": 303.321,
    "EPHEMERIS_TYPE": 0,
    "CLASSIFICATION_TYPE": "U",
    "NORAD_CAT_ID": 36834,
    "ELEMENT_SET_NO": 999,
    "REV_AT_EPOCH": 85822,
    "BSTAR": 0.00011825447,
    "MEAN_MOTION_DOT": 0.00000963,
    "MEAN_MOTION_DDOT": 0
   }
  },
  {
   "norad": 40143,
   "name": "YAOGAN-21",
   "intl": "2014-053A",
   "group": "resource",
   "gcat": {
    "class": "D",
    "category": "IMG",
    "owner": "ZZB",
    "state": "CN"
   },
   "omm": {
    "OBJECT_NAME": "YAOGAN-21",
    "OBJECT_ID": "2014-053A",
    "EPOCH": "2026-06-23T23:31:43.480704",
    "MEAN_MOTION": 15.26457743,
    "ECCENTRICITY": 0.00097571,
    "INCLINATION": 97.1479,
    "RA_OF_ASC_NODE": 214.9242,
    "ARG_OF_PERICENTER": 74.4712,
    "MEAN_ANOMALY": 285.7604,
    "EPHEMERIS_TYPE": 0,
    "CLASSIFICATION_TYPE": "U",
    "NORAD_CAT_ID": 40143,
    "ELEMENT_SET_NO": 999,
    "REV_AT_EPOCH": 65599,
    "BSTAR": 0.00025773927,
    "MEAN_MOTION_DOT": 0.00006659,
    "MEAN_MOTION_DDOT": 0
   }
  }
 ]
}
